[{"OBJECT_NAME":"UMBRA-12","OBJECT_ID":"2026-004J","EPOCH":"2026-03-09T23:28:09.251904","MEAN_MOTION":14.88319852,"ECCENTRICITY":0.00079128,"INCLINATION":97.8019,"RA_OF_ASC_NODE":69.1965,"ARG_OF_PERICENTER":97.182,"MEAN_ANOMALY":263.0297,"EPHEMERIS_TYPE":0,"CLASSIFICATION_TYPE":"U","NORAD_CAT_ID":67371,"ELEMENT_SET_NO":999,"REV_AT_EPOCH":854,"BSTAR":0.00076492026,"MEAN_MOTION_DOT":7.029e-5,"MEAN_MOTION_DDOT":0},{"OBJECT_NAME":"ATLAS 28E R\/B","OBJECT_ID":"1990-031D","EPOCH":"2026-03-09T13:40:28.718976","MEAN_MOTION":14.80148972,"ECCENTRICITY":0.0058493,"INCLINATION":89.8623,"RA_OF_ASC_NODE":258.1521,"ARG_OF_PERICENTER":172.6422,"MEAN_ANOMALY":187.5674,"EPHEMERIS_TYPE":0,"CLASSIFICATION_TYPE":"U","NORAD_CAT_ID":20563,"ELEMENT_SET_NO":999,"REV_AT_EPOCH":35581,"BSTAR":0.00023423,"MEAN_MOTION_DOT":1.847e-5,"MEAN_MOTION_DDOT":0}]
